OBJECT_NAME,OBJECT_ID,EPOCH,MEAN_MOTION,ECCENTRICITY,INCLINATION,RA_OF_ASC_NODE,ARG_OF_PERICENTER,MEAN_ANOMALY,EPHEMERIS_TYPE,CLASSIFICATION_TYPE,NORAD_CAT_ID,ELEMENT_SET_NO,REV_AT_EPOCH,BSTAR,MEAN_MOTION_DOT,MEAN_MOTION_DDOT
ONEWEB-0012,2019-010A,2026-07-06T15:10:38.026848,13.16596310,.0001688,87.9079,224.9229,89.0557,271.0768,0,U,44057,999,35412,.761E-4,.42E-6,0
ONEWEB-0010,2019-010B,2026-07-06T15:47:07.806336,13.16593594,.0002203,87.9083,224.9138,103.3338,256.8038,0,U,44058,999,35417,-.26417E-3,-.88E-6,0
ONEWEB-0008,2019-010C,2026-07-06T12:44:43.933056,13.16593135,.0002256,87.9079,224.9345,89.8298,270.3091,0,U,44059,999,35427,-.13329E-3,-.38E-6,0
ONEWEB-0007,2019-010D,2026-07-06T15:46:57.230112,13.15548298,.0001819,87.8993,255.3419,104.8614,255.2718,0,U,44060,999,35393,.39582E-4,.28E-6,0
ONEWEB-0006,2019-010E,2026-07-06T15:52:39.650592,13.15550571,.0002213,87.9003,255.3074,99.5376,260.6004,0,U,44061,999,35398,-.1335E-3,-.37E-6,0
ONEWEB-0011,2019-010F,2026-07-06T16:56:32.256096,13.15549029,.0002268,87.9002,255.3086,99.9721,260.1666,0,U,44062,999,35398,.25808E-3,.11E-5,0
ONEWEB-0013,2020-008A,2026-07-06T15:42:54.102240,13.09462698,.0001342,87.8507,48.8959,49.4228,310.7015,0,U,45131,999,30861,-.13017E-2,-.436E-5,0
ONEWEB-0017,2020-008B,2026-07-06T14:58:04.369152,13.10376650,.0001948,87.8819,32.3955,91.3364,268.7986,0,U,45132,999,31049,.95663E-3,.347E-5,0
ONEWEB-0020,2020-008C,2026-07-06T14:14:01.303296,13.10370876,.0001838,87.8820,32.4007,85.4384,274.6953,0,U,45133,999,31088,-.19728E-2,-.676E-5,0
ONEWEB-0021,2020-008D,2026-07-06T14:36:00.398016,13.10374086,.0001723,87.8820,32.4128,87.2999,272.8325,0,U,45134,999,31119,-.11528E-2,-.39E-5,0
ONEWEB-0023,2020-008F,2026-07-06T14:51:54.463968,13.10379950,.0001884,87.8826,32.3937,80.0391,280.0949,0,U,45136,999,31062,.44876E-3,.169E-5,0
ONEWEB-0024,2020-008G,2026-07-06T14:11:45.766752,13.10370424,.0001825,87.8827,32.3925,88.1893,271.9443,0,U,45137,999,31078,-.17131E-2,-.585E-5,0
ONEWEB-0025,2020-008H,2026-07-06T14:11:22.399008,13.10370301,.0002279,87.8827,32.3826,83.1931,276.9456,0,U,45138,999,31111,-.16331E-2,-.557E-5,0
ONEWEB-0026,2020-008J,2026-07-06T18:24:14.493024,13.11414888,.0001977,87.8879,17.1691,91.8433,268.2921,0,U,45139,999,31367,.66932E-4,.36E-6,0
ONEWEB-0028,2020-008K,2026-07-06T14:09:07.101792,13.11416943,.0001473,87.8875,17.2120,72.7576,287.3713,0,U,45140,999,31116,.1454E-2,.528E-5,0
ONEWEB-0032,2020-008L,2026-07-06T13:10:44.856192,13.10375091,.0001671,87.8821,32.4122,70.4770,289.6537,0,U,45141,999,31083,.13771E-2,.493E-5,0
ONEWEB-0033,2020-008M,2026-07-06T14:23:47.287104,13.10372283,.000211,87.8817,32.4086,99.1416,260.9950,0,U,45142,999,31075,-.18651E-2,-.638E-5,0
ONEWEB-0035,2020-008N,2026-07-06T14:53:22.121952,13.10356219,.0001924,87.8821,32.3976,87.6764,272.4583,0,U,45143,999,31048,-.55769E-2,-.1933E-4,0
ONEWEB-0036,2020-008P,2026-07-06T14:21:10.808928,13.10368419,.0001772,87.8832,32.4182,79.7302,280.4025,0,U,45144,999,31090,-.19863E-2,-.681E-5,0
ONEWEB-0038,2020-008Q,2026-07-06T13:09:28.813824,13.11415666,.0001325,87.8894,17.2242,150.9335,209.1867,0,U,45145,999,31286,-.12626E-2,-.435E-5,0
ONEWEB-0039,2020-008R,2026-07-06T14:28:41.396160,13.10372071,.000137,87.8813,32.3986,71.0425,289.0851,0,U,45146,999,31070,-.93506E-3,-.314E-5,0
ONEWEB-0040,2020-008S,2026-07-06T14:18:53.496000,13.10371240,.0001974,87.8816,32.4106,78.0129,282.1220,0,U,45147,999,31040,-.18441E-2,-.631E-5,0
ONEWEB-0043,2020-008U,2026-07-06T14:21:33.300576,13.10367309,.0001477,87.8824,32.3991,72.0810,288.0478,0,U,45149,999,31072,-.20857E-2,-.715E-5,0
ONEWEB-0044,2020-008V,2026-07-06T13:13:00.676992,13.10376749,.00018,87.8828,32.4097,80.4628,279.6703,0,U,45150,999,31101,.14815E-2,.53E-5,0
ONEWEB-0045,2020-008W,2026-07-06T18:31:33.747168,13.11415023,.0001701,87.8889,17.1612,88.3058,271.8265,0,U,45151,999,31297,-.75421E-3,-.255E-5,0
ONEWEB-0047,2020-008X,2026-07-06T14:52:56.144064,13.10374972,.0001809,87.8828,32.3952,92.6078,267.5256,0,U,45152,999,31074,.36557E-3,.14E-5,0
ONEWEB-0048,2020-008Y,2026-07-06T14:45:47.403936,13.10376334,.0001827,87.8821,32.4157,88.4380,271.6957,0,U,45153,999,31035,-.88019E-3,-.295E-5,0
ONEWEB-0049,2020-008Z,2026-07-06T14:50:28.781088,13.10374474,.0002079,87.8818,32.4042,75.5485,284.5873,0,U,45154,999,31057,.81754E-4,.41E-6,0
ONEWEB-0051,2020-008AA,2026-07-06T18:29:07.943712,13.11415312,.0001859,87.8880,17.1676,89.6257,270.5084,0,U,45155,999,31365,-.39869E-3,-.129E-5,0
ONEWEB-0052,2020-008AB,2026-07-06T15:20:16.221696,13.10373520,.0001952,87.8821,32.3873,75.7677,284.3667,0,U,45156,999,31048,.19181E-2,.682E-5,0
ONEWEB-0053,2020-008AC,2026-07-06T14:16:27.359040,13.10370959,.0001665,87.8817,32.4166,70.9347,289.1960,0,U,45157,999,31045,-.18676E-2,-.639E-5,0
